STARLINK-35924          
1 66516U 25265A   25342.91670139 -.02062345  00000+0 -33607-1 0  9999
2 66516  43.0003  76.3980 0001596 273.1050  89.7885 15.54996199  4364
STARLINK-35937          
1 66517U 25265B   25342.91670139 -.02055160  00000+0 -33483-1 0  9999
2 66517  43.0001  76.3940 0001698 280.0748  84.7393 15.54989293  4381
STARLINK-35962          
1 66518U 25265C   25342.91670139 -.02048898  00000+0 -33374-1 0  9999
2 66518  43.0000  76.3886 0001632 279.2464  87.4860 15.54986108  4384
STARLINK-35931          
1 66519U 25265D   25342.91670139 -.02050996  00000+0 -33410-1 0  9993
2 66519  43.0002  76.3837 0001604 279.8092  88.8385 15.54988313  4382
STARLINK-35952          
1 66520U 25265E   25342.91670139 -.02050289  00000+0 -33398-1 0  9995
2 66520  43.0003  76.3783 0001623 280.4026  90.1632 15.54987324  4383
STARLINK-35915          
1 66521U 25265F   25342.91670139 -.02050847  00000+0 -33405-1 0  9995
2 66521  43.0003  76.3738 0001551 275.0219  97.4586 15.54989972  4387
STARLINK-35946          
1 66522U 25265G   25342.91670139 -.02046865  00000+0 -33336-1 0  9994
2 66522  43.0003  76.3688 0001717 280.9293  93.4697 15.54986095  4385
STARLINK-35969          
1 66523U 25265H   25342.91670139 -.02045368  00000+0 -33309-1 0  9992
2 66523  43.0005  76.3643 0001749 280.0024  96.3145 15.54985148  4385
STARLINK-35687          
1 66524U 25265J   25342.91670139 -.02041471  00000+0 -33240-1 0  9998
2 66524  43.0004  76.3590 0001674 281.3690  96.8635 15.54984305  4389
STARLINK-35975          
1 66525U 25265K   25342.91670139 -.02045694  00000+0 -33315-1 0  9993
2 66525  43.0002  76.3547 0001687 276.4971 103.6550 15.54985885  4388
STARLINK-35932          
1 66526U 25265L   25342.91670139 -.02039019  00000+0 -33197-1 0  9996
2 66526  43.0001  76.3499 0001720 281.4831 100.5849 15.54982379  4273
STARLINK-35935          
1 66527U 25265M   25342.91670139 -.02044369  00000+0 -33292-1 0  9997
2 66527  43.0001  76.3453 0001588 274.0910 109.8945 15.54985909  4385
