CCSDS_OMM_VERS = 2.0
CREATION_DATE  = 
ORIGINATOR     = 

OBJECT_NAME    = STARLINK-35924
OBJECT_ID      = 2025-265A
CENTER_NAME    = EARTH
REF_FRAME      = TEME
TIME_SYSTEM    = UTC
MEAN_ELEMENT_THEORY = SGP/SGP4

EPOCH          = 2025-12-08T22:00:03.000096
MEAN_MOTION    = 15.54996199
ECCENTRICITY   = .00015967
INCLINATION    = 43.0003
RA_OF_ASC_NODE = 76.3980
ARG_OF_PERICENTER = 273.1050
MEAN_ANOMALY   = 89.7885

EPHEMERIS_TYPE = 0
CLASSIFICATION_TYPE = U
NORAD_CAT_ID   = 66516
ELEMENT_SET_NO = 999
REV_AT_EPOCH   = 436
BSTAR          = -.3360715E-1
MEAN_MOTION_DOT = -.2062345E-1
MEAN_MOTION_DDOT = 0

CCSDS_OMM_VERS = 2.0
CREATION_DATE  = 
ORIGINATOR     = 

OBJECT_NAME    = STARLINK-35937
OBJECT_ID      = 2025-265B
CENTER_NAME    = EARTH
REF_FRAME      = TEME
TIME_SYSTEM    = UTC
MEAN_ELEMENT_THEORY = SGP/SGP4

EPOCH          = 2025-12-08T22:00:03.000096
MEAN_MOTION    = 15.54989293
ECCENTRICITY   = .0001698
INCLINATION    = 43.0001
RA_OF_ASC_NODE = 76.3940
ARG_OF_PERICENTER = 280.0748
MEAN_ANOMALY   = 84.7393

EPHEMERIS_TYPE = 0
CLASSIFICATION_TYPE = U
NORAD_CAT_ID   = 66517
ELEMENT_SET_NO = 999
REV_AT_EPOCH   = 438
BSTAR          = -.334833E-1
MEAN_MOTION_DOT = -.205516E-1
MEAN_MOTION_DDOT = 0

CCSDS_OMM_VERS = 2.0
CREATION_DATE  = 
ORIGINATOR     = 

OBJECT_NAME    = STARLINK-35962
OBJECT_ID      = 2025-265C
CENTER_NAME    = EARTH
REF_FRAME      = TEME
TIME_SYSTEM    = UTC
MEAN_ELEMENT_THEORY = SGP/SGP4

EPOCH          = 2025-12-08T22:00:03.000096
MEAN_MOTION    = 15.54986108
ECCENTRICITY   = .00016328
INCLINATION    = 43.0000
RA_OF_ASC_NODE = 76.3886
ARG_OF_PERICENTER = 279.2464
MEAN_ANOMALY   = 87.4860

EPHEMERIS_TYPE = 0
CLASSIFICATION_TYPE = U
NORAD_CAT_ID   = 66518
ELEMENT_SET_NO = 999
REV_AT_EPOCH   = 438
BSTAR          = -.33373715E-1
MEAN_MOTION_DOT = -.2048898E-1
MEAN_MOTION_DDOT = 0

CCSDS_OMM_VERS = 2.0
CREATION_DATE  = 
ORIGINATOR     = 

OBJECT_NAME    = STARLINK-35931
OBJECT_ID      = 2025-265D
CENTER_NAME    = EARTH
REF_FRAME      = TEME
TIME_SYSTEM    = UTC
MEAN_ELEMENT_THEORY = SGP/SGP4

EPOCH          = 2025-12-08T22:00:03.000096
MEAN_MOTION    = 15.54988313
ECCENTRICITY   = .00016044
INCLINATION    = 43.0002
RA_OF_ASC_NODE = 76.3837
ARG_OF_PERICENTER = 279.8092
MEAN_ANOMALY   = 88.8385

EPHEMERIS_TYPE = 0
CLASSIFICATION_TYPE = U
NORAD_CAT_ID   = 66519
ELEMENT_SET_NO = 999
REV_AT_EPOCH   = 438
BSTAR          = -.33409615E-1
MEAN_MOTION_DOT = -.2050996E-1
MEAN_MOTION_DDOT = 0

CCSDS_OMM_VERS = 2.0
CREATION_DATE  = 
ORIGINATOR     = 

OBJECT_NAME    = STARLINK-35952
OBJECT_ID      = 2025-265E
CENTER_NAME    = EARTH
REF_FRAME      = TEME
TIME_SYSTEM    = UTC
MEAN_ELEMENT_THEORY = SGP/SGP4

EPOCH          = 2025-12-08T22:00:03.000096
MEAN_MOTION    = 15.54987324
ECCENTRICITY   = .00016237
INCLINATION    = 43.0003
RA_OF_ASC_NODE = 76.3783
ARG_OF_PERICENTER = 280.4026
MEAN_ANOMALY   = 90.1632

EPHEMERIS_TYPE = 0
CLASSIFICATION_TYPE = U
NORAD_CAT_ID   = 66520
ELEMENT_SET_NO = 999
REV_AT_EPOCH   = 438
BSTAR          = -.333977E-1
MEAN_MOTION_DOT = -.2050289E-1
MEAN_MOTION_DDOT = 0

CCSDS_OMM_VERS = 2.0
CREATION_DATE  = 
ORIGINATOR     = 

OBJECT_NAME    = STARLINK-35915
OBJECT_ID      = 2025-265F
CENTER_NAME    = EARTH
REF_FRAME      = TEME
TIME_SYSTEM    = UTC
MEAN_ELEMENT_THEORY = SGP/SGP4

EPOCH          = 2025-12-08T22:00:03.000096
MEAN_MOTION    = 15.54989972
ECCENTRICITY   = .00015515
INCLINATION    = 43.0003
RA_OF_ASC_NODE = 76.3738
ARG_OF_PERICENTER = 275.0219
MEAN_ANOMALY   = 97.4586

EPHEMERIS_TYPE = 0
CLASSIFICATION_TYPE = U
NORAD_CAT_ID   = 66521
ELEMENT_SET_NO = 999
REV_AT_EPOCH   = 438
BSTAR          = -.33405446E-1
MEAN_MOTION_DOT = -.2050847E-1
MEAN_MOTION_DDOT = 0

CCSDS_OMM_VERS = 2.0
CREATION_DATE  = 
ORIGINATOR     = 

OBJECT_NAME    = STARLINK-35946
OBJECT_ID      = 2025-265G
CENTER_NAME    = EARTH
REF_FRAME      = TEME
TIME_SYSTEM    = UTC
MEAN_ELEMENT_THEORY = SGP/SGP4

EPOCH          = 2025-12-08T22:00:03.000096
MEAN_MOTION    = 15.54986095
ECCENTRICITY   = .00017177
INCLINATION    = 43.0003
RA_OF_ASC_NODE = 76.3688
ARG_OF_PERICENTER = 280.9293
MEAN_ANOMALY   = 93.4697

EPHEMERIS_TYPE = 0
CLASSIFICATION_TYPE = U
NORAD_CAT_ID   = 66522
ELEMENT_SET_NO = 999
REV_AT_EPOCH   = 438
BSTAR          = -.33335625E-1
MEAN_MOTION_DOT = -.2046865E-1
MEAN_MOTION_DDOT = 0

CCSDS_OMM_VERS = 2.0
CREATION_DATE  = 
ORIGINATOR     = 

OBJECT_NAME    = STARLINK-35969
OBJECT_ID      = 2025-265H
CENTER_NAME    = EARTH
REF_FRAME      = TEME
TIME_SYSTEM    = UTC
MEAN_ELEMENT_THEORY = SGP/SGP4

EPOCH          = 2025-12-08T22:00:03.000096
MEAN_MOTION    = 15.54985148
ECCENTRICITY   = .00017496
INCLINATION    = 43.0005
RA_OF_ASC_NODE = 76.3643
ARG_OF_PERICENTER = 280.0024
MEAN_ANOMALY   = 96.3145

EPHEMERIS_TYPE = 0
CLASSIFICATION_TYPE = U
NORAD_CAT_ID   = 66523
ELEMENT_SET_NO = 999
REV_AT_EPOCH   = 438
BSTAR          = -.33309107E-1
MEAN_MOTION_DOT = -.2045368E-1
MEAN_MOTION_DDOT = 0

CCSDS_OMM_VERS = 2.0
CREATION_DATE  = 
ORIGINATOR     = 

OBJECT_NAME    = STARLINK-35687
OBJECT_ID      = 2025-265J
CENTER_NAME    = EARTH
REF_FRAME      = TEME
TIME_SYSTEM    = UTC
MEAN_ELEMENT_THEORY = SGP/SGP4

EPOCH          = 2025-12-08T22:00:03.000096
MEAN_MOTION    = 15.54984305
ECCENTRICITY   = .0001674
INCLINATION    = 43.0004
RA_OF_ASC_NODE = 76.3590
ARG_OF_PERICENTER = 281.3690
MEAN_ANOMALY   = 96.8635

EPHEMERIS_TYPE = 0
CLASSIFICATION_TYPE = U
NORAD_CAT_ID   = 66524
ELEMENT_SET_NO = 999
REV_AT_EPOCH   = 438
BSTAR          = -.33239977E-1
MEAN_MOTION_DOT = -.2041471E-1
MEAN_MOTION_DDOT = 0

CCSDS_OMM_VERS = 2.0
CREATION_DATE  = 
ORIGINATOR     = 

OBJECT_NAME    = STARLINK-35975
OBJECT_ID      = 2025-265K
CENTER_NAME    = EARTH
REF_FRAME      = TEME
TIME_SYSTEM    = UTC
MEAN_ELEMENT_THEORY = SGP/SGP4

EPOCH          = 2025-12-08T22:00:03.000096
MEAN_MOTION    = 15.54985885
ECCENTRICITY   = .00016876
INCLINATION    = 43.0002
RA_OF_ASC_NODE = 76.3547
ARG_OF_PERICENTER = 276.4971
MEAN_ANOMALY   = 103.6550

EPHEMERIS_TYPE = 0
CLASSIFICATION_TYPE = U
NORAD_CAT_ID   = 66525
ELEMENT_SET_NO = 999
REV_AT_EPOCH   = 438
BSTAR          = -.33314868E-1
MEAN_MOTION_DOT = -.2045694E-1
MEAN_MOTION_DDOT = 0

CCSDS_OMM_VERS = 2.0
CREATION_DATE  = 
ORIGINATOR     = 

OBJECT_NAME    = STARLINK-35932
OBJECT_ID      = 2025-265L
CENTER_NAME    = EARTH
REF_FRAME      = TEME
TIME_SYSTEM    = UTC
MEAN_ELEMENT_THEORY = SGP/SGP4

EPOCH          = 2025-12-08T22:00:03.000096
MEAN_MOTION    = 15.54982379
ECCENTRICITY   = .00017207
INCLINATION    = 43.0001
RA_OF_ASC_NODE = 76.3499
ARG_OF_PERICENTER = 281.4831
MEAN_ANOMALY   = 100.5849

EPHEMERIS_TYPE = 0
CLASSIFICATION_TYPE = U
NORAD_CAT_ID   = 66526
ELEMENT_SET_NO = 999
REV_AT_EPOCH   = 427
BSTAR          = -.33197083E-1
MEAN_MOTION_DOT = -.2039019E-1
MEAN_MOTION_DDOT = 0

CCSDS_OMM_VERS = 2.0
CREATION_DATE  = 
ORIGINATOR     = 

OBJECT_NAME    = STARLINK-35935
OBJECT_ID      = 2025-265M
CENTER_NAME    = EARTH
REF_FRAME      = TEME
TIME_SYSTEM    = UTC
MEAN_ELEMENT_THEORY = SGP/SGP4

EPOCH          = 2025-12-08T22:00:03.000096
MEAN_MOTION    = 15.54985909
ECCENTRICITY   = .00015882
INCLINATION    = 43.0001
RA_OF_ASC_NODE = 76.3453
ARG_OF_PERICENTER = 274.0910
MEAN_ANOMALY   = 109.8945

EPHEMERIS_TYPE = 0
CLASSIFICATION_TYPE = U
NORAD_CAT_ID   = 66527
ELEMENT_SET_NO = 999
REV_AT_EPOCH   = 438
BSTAR          = -.33291844E-1
MEAN_MOTION_DOT = -.2044369E-1
MEAN_MOTION_DDOT = 0

